[{"OBJECT_NAME":"STARLINK-3591","OBJECT_ID":"2022-022U","EPOCH":"2026-03-09T03:52:57.036000","MEAN_MOTION":15.08840713,"ECCENTRICITY":0.00012411,"INCLINATION":53.2195,"RA_OF_ASC_NODE":11.4937,"ARG_OF_PERICENTER":83.3312,"MEAN_ANOMALY":276.7821,"EPHEMERIS_TYPE":0,"CLASSIFICATION_TYPE":"U","NORAD_CAT_ID":51870,"ELEMENT_SET_NO":999,"REV_AT_EPOCH":22308,"BSTAR":-4.7550801e-5,"MEAN_MOTION_DOT":-1.045e-5,"MEAN_MOTION_DDOT":0},{"OBJECT_NAME":"CZ-4 DEB","OBJECT_ID":"2006-046L","EPOCH":"2026-03-09T05:26:57.251328","MEAN_MOTION":15.20206122,"ECCENTRICITY":0.00567956,"INCLINATION":97.8211,"RA_OF_ASC_NODE":163.0679,"ARG_OF_PERICENTER":229.3561,"MEAN_ANOMALY":130.2727,"EPHEMERIS_TYPE":0,"CLASSIFICATION_TYPE":"U","NORAD_CAT_ID":35378,"ELEMENT_SET_NO":999,"REV_AT_EPOCH":2541,"BSTAR":0.0021311714,"MEAN_MOTION_DOT":0.00048409,"MEAN_MOTION_DDOT":0}]
